*******************************************************************************
JPL/HORIZONS                     (2021 CZ3)                2021-May-28 11:22:16
Rec #:50526543 (+COV) Soln.date: 2021-Apr-15_23:25:07        # obs: 42 (1 days)
 
IAU76/J2000 helio. ecliptic osc. elements (au, days, deg., period=Julian yrs):
 
  EPOCH=  2459255.5 ! 2021-Feb-10.00 (TDB)         Residual RMS= .50513
   EC= .3160676730302928   QR= .756252270899104    TP= 2459191.9952938193
   OM= 140.1216720872927   W=  271.7084215439619   IN= 4.570810244452469
   A= 1.105741373930699    MA= 53.83065259153083   ADIST= 1.455230476962294
   PER= 1.16276            N= .847663966           ANGMOM= .017161447
   DAN= .98599             DDN= 1.00475            L= 51.8355512
   B= -4.5687741           MOID= .00017884         TP= 2020-Dec-08.4952938193
 
Asteroid physical parameters (km, seconds, rotational period in hours):
   GM= n.a.                RAD= n.a.               ROTPER= n.a.
   H= 31.                  G= .150                 B-V= n.a.
                           ALBEDO= n.a.            STYP= n.a.
 
ASTEROID comments: 
1: soln ref.= JPL#5, OCC=6
2: source=ORB
*******************************************************************************
 
 
*******************************************************************************
Ephemeris / WWW_USER Fri May 28 11:22:16 2021 Pasadena, USA      / Horizons    
*******************************************************************************
Target body name: (2021 CZ3)                      {source: JPL#5}
Center body name: Solar System Barycenter (0)     {source: DE441}
Center-site name: BODYCENTRIC
*******************************************************************************
Start time      : A.D. 2014-Jan-01 00:00:00.0000 UT      
Stop  time      : A.D. 2023-Jan-01 00:00:00.0000 UT      
Step-size       : 1440 minutes
*******************************************************************************
Target pole/equ : No model available
Target radii    : (unavailable)                                                
Center geodetic : 0.00000000,0.00000000,0.0000000 {E-lon(deg),Lat(deg),Alt(km)}
Center cylindric: 0.00000000,0.00000000,0.0000000 {E-lon(deg),Dxy(km),Dz(km)}
Center pole/equ : ICRF
Center radii    : (undefined)                                                  
Target primary  : Sun
Vis. interferer : None
Rel. light bend : Sun                             {source: DE441}
Rel. lght bnd GM: 1.3271E+11 km^3/s^2                                          
Small-body perts: Yes                             {source: SB441-N16}
Atmos refraction: NO (AIRLESS)
RA format       : DEG
Time format     : CAL 
EOP file        : eop.210527.p210818                                           
EOP coverage    : DATA-BASED 1962-JAN-20 TO 2021-MAY-27. PREDICTS-> 2021-AUG-17
Units conversion: 1 au= 149597870.700 km, c= 299792.458 km/s, 1 day= 86400.0 s 
Table cut-offs 1: Elevation (-90.0deg=NO ),Airmass     n.a.    , Daylight (NO )
Table cut-offs 2: Solar elongation (  0.0,180.0=NO ),Local Hour Angle( 0.0=NO )
Table cut-offs 3: RA/DEC angular rate (     0.0=NO )                           
*******************************************************************************
Initial IAU76/J2000 heliocentric ecliptic osculating elements (au, days, deg.):
  EPOCH=  2459255.5 ! 2021-Feb-10.00 (TDB)         Residual RMS= .50513        
   EC= .3160676730302928   QR= .756252270899104    TP= 2459191.9952938193      
   OM= 140.1216720872927   W=  271.7084215439619   IN= 4.570810244452469       
  Equivalent ICRF heliocentric cartesian coordinates (au, au/d):
   X=-7.724569891411389E-01  Y= 5.699608714976805E-01  Z= 2.486816466033636E-01
  VX=-1.506099187749176E-02 VY=-9.746227433002007E-03 VZ=-2.713956418366531E-03
Asteroid physical parameters (km, seconds, rotational period in hours):        
   GM= n.a.                RAD= n.a.               ROTPER= n.a.                
   H= 31.                  G= .150                 B-V= n.a.                   
                           ALBEDO= n.a.            STYP= n.a.                  
*******************************************************************************
 Date__(UT)__HR:MN                delta     GlxLon     GlxLat
*************************************************************
$$SOE
 2014-Sep-25 00:00     2.0662391602E+08 359.687550  31.061043
 2014-Sep-26 00:00     2.0655761709E+08 359.964751  30.600631
 2014-Sep-27 00:00     2.0648501454E+08   0.239519  30.139314
 2014-Sep-28 00:00     2.0640611009E+08   0.511933  29.677081
 2014-Sep-29 00:00     2.0632090557E+08   0.782073  29.213915
 2014-Sep-30 00:00     2.0622940297E+08   1.050015  28.749802
 2014-Oct-01 00:00     2.0613160442E+08   1.315834  28.284728
 2014-Oct-02 00:00     2.0602751220E+08   1.579602  27.818675
 2014-Oct-03 00:00     2.0591712874E+08   1.841393  27.351627
 2014-Oct-04 00:00     2.0580045662E+08   2.101276  26.883568
 2014-Oct-05 00:00     2.0567749858E+08   2.359319  26.414479
 2014-Oct-06 00:00     2.0554825753E+08   2.615590  25.944343
 2014-Oct-07 00:00     2.0541273654E+08   2.870154  25.473140
 2014-Oct-08 00:00     2.0527093883E+08   3.123077  25.000853
 2014-Oct-09 00:00     2.0512286782E+08   3.374421  24.527461
 2014-Oct-10 00:00     2.0496852710E+08   3.624249  24.052944
 2014-Oct-11 00:00     2.0480792041E+08   3.872622  23.577283
 2014-Oct-12 00:00     2.0464105173E+08   4.119601  23.100455
 2014-Oct-13 00:00     2.0446792518E+08   4.365244  22.622440
 2014-Oct-14 00:00     2.0428854510E+08   4.609609  22.143215
 2014-Oct-15 00:00     2.0410291604E+08   4.852755  21.662759
 2014-Oct-16 00:00     2.0391104274E+08   5.094738  21.181049
 2014-Oct-17 00:00     2.0371293016E+08   5.335613  20.698061
 2014-Oct-18 00:00     2.0350858347E+08   5.575436  20.213771
 2014-Oct-19 00:00     2.0329800809E+08   5.814262  19.728157
 2014-Oct-20 00:00     2.0308120964E+08   6.052144  19.241192
 2014-Oct-21 00:00     2.0285819400E+08   6.289135  18.752853
 2014-Oct-22 00:00     2.0262896729E+08   6.525288  18.263114
 2014-Oct-23 00:00     2.0239353589E+08   6.760657  17.771949
 2014-Oct-24 00:00     2.0215190643E+08   6.995291  17.279331
 2014-Oct-25 00:00     2.0190408583E+08   7.229245  16.785234
 2014-Oct-26 00:00     2.0165008127E+08   7.462567  16.289631
 2014-Oct-27 00:00     2.0138990021E+08   7.695310  15.792494
 2014-Oct-28 00:00     2.0112355044E+08   7.927524  15.293796
 2014-Oct-29 00:00     2.0085104003E+08   8.159259  14.793507
 2014-Oct-30 00:00     2.0057237737E+08   8.390566  14.291599
 2014-Oct-31 00:00     2.0028757118E+08   8.621496  13.788043
 2014-Nov-01 00:00     1.9999663052E+08   8.852098  13.282808
 2014-Nov-02 00:00     1.9969956478E+08   9.082422  12.775864
 2014-Nov-03 00:00     1.9939638372E+08   9.312519  12.267182
 2014-Nov-04 00:00     1.9908709749E+08   9.542439  11.756729
 2014-Nov-05 00:00     1.9877171659E+08   9.772233  11.244474
 2014-Nov-06 00:00     1.9845025193E+08  10.001951  10.730385
 2014-Nov-07 00:00     1.9812271484E+08  10.231643  10.214430
 2014-Nov-08 00:00     1.9778911704E+08  10.461361   9.696576
 2014-Nov-09 00:00     1.9744947073E+08  10.691157   9.176788
 2014-Nov-10 00:00     1.9710378852E+08  10.921081   8.655034
 2014-Nov-11 00:00     1.9675208351E+08  11.151187   8.131280
 2014-Nov-12 00:00     1.9639436926E+08  11.381527   7.605489
 2014-Nov-13 00:00     1.9603065985E+08  11.612153   7.077627
 2014-Nov-14 00:00     1.9566096986E+08  11.843120   6.547659
 2014-Nov-15 00:00     1.9528531440E+08  12.074483   6.015548
 2014-Nov-16 00:00     1.9490370913E+08  12.306295   5.481257
 2014-Nov-17 00:00     1.9451617028E+08  12.538614   4.944750
 2014-Nov-18 00:00     1.9412271466E+08  12.771495   4.405988
 2014-Nov-19 00:00     1.9372335968E+08  13.004997   3.864934
 2014-Nov-20 00:00     1.9331812339E+08  13.239177   3.321549
 2014-Nov-21 00:00     1.9290702447E+08  13.474095   2.775795
 2014-Nov-22 00:00     1.9249008227E+08  13.709813   2.227630
 2014-Nov-23 00:00     1.9206731683E+08  13.946391   1.677017
 2014-Nov-24 00:00     1.9163874892E+08  14.183892   1.123913
 2014-Nov-25 00:00     1.9120440002E+08  14.422382   0.568279
 2014-Nov-26 00:00     1.9076429239E+08  14.661925   0.010073
 2014-Nov-27 00:00     1.9031844905E+08  14.902590  -0.550748
 2014-Nov-28 00:00     1.8986689387E+08  15.144445  -1.114225
 2014-Nov-29 00:00     1.8940965152E+08  15.387560  -1.680401
 2014-Nov-30 00:00     1.8894674758E+08  15.632008  -2.249319
 2014-Dec-01 00:00     1.8847820848E+08  15.877863  -2.821023
 2014-Dec-02 00:00     1.8800406161E+08  16.125202  -3.395558
 2014-Dec-03 00:00     1.8752433530E+08  16.374103  -3.972967
 2014-Dec-04 00:00     1.8703905888E+08  16.624647  -4.553296
 2014-Dec-05 00:00     1.8654826269E+08  16.876916  -5.136590
 2014-Dec-06 00:00     1.8605197813E+08  17.130998  -5.722895
 2014-Dec-07 00:00     1.8555023768E+08  17.386979  -6.312256
 2014-Dec-08 00:00     1.8504307497E+08  17.644951  -6.904721
 2014-Dec-09 00:00     1.8453052478E+08  17.905009  -7.500337
 2014-Dec-10 00:00     1.8401262307E+08  18.167249  -8.099150
 2014-Dec-11 00:00     1.8348940708E+08  18.431773  -8.701208
 2014-Dec-12 00:00     1.8296091529E+08  18.698685  -9.306559
 2014-Dec-13 00:00     1.8242718755E+08  18.968092  -9.915250
 2014-Dec-14 00:00     1.8188826504E+08  19.240108 -10.527331
 2014-Dec-15 00:00     1.8134419036E+08  19.514848 -11.142849
 2014-Dec-16 00:00     1.8079500757E+08  19.792433 -11.761853
 2014-Dec-17 00:00     1.8024076225E+08  20.072989 -12.384392
 2014-Dec-18 00:00     1.7968150150E+08  20.356646 -13.010514
 2014-Dec-19 00:00     1.7911727405E+08  20.643541 -13.640269
 2014-Dec-20 00:00     1.7854813029E+08  20.933813 -14.273705
 2014-Dec-21 00:00     1.7797412229E+08  21.227612 -14.910870
 2014-Dec-22 00:00     1.7739530391E+08  21.525091 -15.551812
